start=new Date('2022-12-07T00:00:00.000Z').valueOf();
sats=[{"OBJECT_NAME":"STARLINK-1623","EPOCH":"2022-12-06T15:35:16.359360","ARG_OF_PERICENTER":"77.5514","CLASSIFICATION_TYPE":"U","MEAN_MOTION":"15.06398459","ECCENTRICITY":"0.00016880","APOAPSIS":"548.387","EPHEMERIS_TYPE":"0","PERIAPSIS":"546.049","LAUNCH_DATE":"2020-08-18","GP_ID":"219692696","OBJECT_ID":"2020-057N","MEAN_MOTION_DDOT":"0.0000000000000","REF_FRAME":"TEME","MEAN_ELEMENT_THEORY":"SGP4","NORAD_CAT_ID":"46129","MEAN_MOTION_DOT":"-0.00000578","MEAN_ANOMALY":"282.5663","SEMIMAJOR_AXIS":"6925.353","RA_OF_ASC_NODE":"214.4310","SITE":"AFETR","REV_AT_EPOCH":"12741","FILE":"3683274","PERIOD":"95.592","TLE_LINE1":"1 46129U 20057N   22340.64949490 -.00000578  00000-0 -19922-4 0  9991","ELEMENT_SET_NO":"999","BSTAR":"-0.00001992200000","TLE_LINE2":"2 46129  53.0542 214.4310 0001688  77.5514 282.5663 15.06398459127417","TIME_SYSTEM":"UTC","DECAY_DATE":null,"RCS_SIZE":"LARGE","OBJECT_TYPE":"PAYLOAD","CENTER_NAME":"EARTH","INCLINATION":"53.0542","COUNTRY_CODE":"US"},{"COUNTRY_CODE":"US","INCLINATION":"53.0548","CENTER_NAME":"EARTH","OBJECT_TYPE":"PAYLOAD","RCS_SIZE":"LARGE","DECAY_DATE":null,"TIME_SYSTEM":"UTC","TLE_LINE2":"2 46130  53.0548 213.6793 0001590  64.5117 295.6036 15.06378286128683","BSTAR":"-0.00007024800000","TLE_LINE1":"1 46130U 20057P   22340.81537639 -.00001327  00000-0 -70248-4 0  9991","ELEMENT_SET_NO":"999","PERIOD":"95.594","FILE":"3683274","REV_AT_EPOCH":"12868","SITE":"AFETR","RA_OF_ASC_NODE":"213.6793","SEMIMAJOR_AXIS":"6925.415","MEAN_ANOMALY":"295.6036","MEAN_MOTION_DOT":"-0.00001327","NORAD_CAT_ID":"46130","MEAN_ELEMENT_THEORY":"SGP4","MEAN_MOTION_DDOT":"0.0000000000000","REF_FRAME":"TEME","OBJECT_ID":"2020-057P","GP_ID":"219693445","LAUNCH_DATE":"2020-08-18","PERIAPSIS":"546.179","EPHEMERIS_TYPE":"0","APOAPSIS":"548.381","ECCENTRICITY":"0.00015900","CLASSIFICATION_TYPE":"U","ARG_OF_PERICENTER":"64.5117","MEAN_MOTION":"15.06378286","EPOCH":"2022-12-06T19:34:08.520096","OBJECT_NAME":"STARLINK-1624"},{"OBJECT_ID":"2020-057Q","GP_ID":"219693680","EPHEMERIS_TYPE":"0","PERIAPSIS":"546.089","LAUNCH_DATE":"2020-08-18","NORAD_CAT_ID":"46131","REF_FRAME":"TEME","MEAN_MOTION_DDOT":"0.0000000000000","MEAN_ELEMENT_THEORY":"SGP4","EPOCH":"2022-12-06T19:52:42.244608","CLASSIFICATION_TYPE":"U","ARG_OF_PERICENTER":"63.4502","MEAN_MOTION":"15.06392833","ECCENTRICITY":"0.00016560","OBJECT_NAME":"STARLINK-1625","APOAPSIS":"548.382","OBJECT_TYPE":"PAYLOAD","TLE_LINE2":"2 46131  53.0555 233.6212 0001656  63.4502 296.6656 15.06392833128413","TIME_SYSTEM":"UTC","DECAY_DATE":null,"RCS_SIZE":"LARGE","COUNTRY_CODE":"US","CENTER_NAME":"EARTH","INCLINATION":"53.0555","MEAN_ANOMALY":"296.6656","SEMIMAJOR_AXIS":"6925.371","MEAN_MOTION_DOT":"-0.00000930","FILE":"3683274","PERIOD":"95.593","TLE_LINE1":"1 46131U 20057Q   22340.82826672 -.00000930  00000-0 -43565-4 0  9992","ELEMENT_SET_NO":"999","BSTAR":"-0.00004356500000","RA_OF_ASC_NODE":"233.6212","SITE":"AFETR","REV_AT_EPOCH":"12841"},{"APOAPSIS":"548.285","EPOCH":"2022-12-06T11:15:10.821600","ECCENTRICITY":"0.00015570","CLASSIFICATION_TYPE":"U","MEAN_MOTION":"15.06402305","ARG_OF_PERICENTER":"61.7464","OBJECT_NAME":"STARLINK-1630","NORAD_CAT_ID":"46132","MEAN_ELEMENT_THEORY":"SGP4","REF_FRAME":"TEME","MEAN_MOTION_DDOT":"0.0000000000000","OBJECT_ID":"2020-057R","GP_ID":"219664450","PERIAPSIS":"546.128","EPHEMERIS_TYPE":"0","LAUNCH_DATE":"2020-08-18","PERIOD":"95.592","FILE":"3683104","BSTAR":"0.00016008000000","TLE_LINE1":"1 46132U 20057R   22340.46887525  .00002104  00000-0  16008-3 0  9991","ELEMENT_SET_NO":"999","RA_OF_ASC_NODE":"255.2435","REV_AT_EPOCH":"12808","SITE":"AFETR","MEAN_ANOMALY":"298.3682","SEMIMAJOR_AXIS":"6925.341","MEAN_MOTION_DOT":"0.00002104","COUNTRY_CODE":"US","CENTER_NAME":"EARTH","INCLINATION":"53.0532","OBJECT_TYPE":"PAYLOAD","TIME_SYSTEM":"UTC","TLE_LINE2":"2 46132  53.0532 255.2435 0001557  61.7464 298.3682 15.06402305128081","DECAY_DATE":null,"RCS_SIZE":"LARGE"},{"COUNTRY_CODE":"US","CENTER_NAME":"EARTH","INCLINATION":"53.0565","OBJECT_TYPE":"PAYLOAD","TLE_LINE2":"2 46133  53.0565 217.6343 0001765  79.0123 281.1065 15.06402399128553","TIME_SYSTEM":"UTC","DECAY_DATE":null,"RCS_SIZE":"LARGE","FILE":"3683104","PERIOD":"95.592","TLE_LINE1":"1 46133U 20057S   22339.93810568  .00000887  00000-0  78410-4 0  9997","ELEMENT_SET_NO":"999","BSTAR":"0.00007841000000","RA_OF_ASC_NODE":"217.6343","SITE":"AFETR","REV_AT_EPOCH":"12855","MEAN_ANOMALY":"281.1065","SEMIMAJOR_AXIS":"6925.341","MEAN_MOTION_DOT":"0.00000887","NORAD_CAT_ID":"46133","REF_FRAME":"TEME","MEAN_MOTION_DDOT":"0.0000000000000","MEAN_ELEMENT_THEORY":"SGP4","GP_ID":"219662729","OBJECT_ID":"2020-057S","EPHEMERIS_TYPE":"0","PERIAPSIS":"545.984","LAUNCH_DATE":"2020-08-18","APOAPSIS":"548.429","EPOCH":"2022-12-05T22:30:52.330752","CLASSIFICATION_TYPE":"U","ARG_OF_PERICENTER":"79.0123","MEAN_MOTION":"15.06402399","ECCENTRICITY":"0.00017650","OBJECT_NAME":"STARLINK-1637"},{"MEAN_MOTION":"15.06404209","CLASSIFICATION_TYPE":"U","ARG_OF_PERICENTER":"71.7083","ECCENTRICITY":"0.00016760","EPOCH":"2022-12-06T01:45:53.728992","OBJECT_NAME":"STARLINK-1638","APOAPSIS":"548.361","OBJECT_ID":"2020-057T","GP_ID":"219662979","LAUNCH_DATE":"2020-08-18","EPHEMERIS_TYPE":"0","PERIAPSIS":"546.040","NORAD_CAT_ID":"46134","MEAN_MOTION_DDOT":"0.0000000000000","REF_FRAME":"TEME","MEAN_ELEMENT_THEORY":"SGP4","SEMIMAJOR_AXIS":"6925.336","MEAN_ANOMALY":"288.4089","MEAN_MOTION_DOT":"-0.00000085","BSTAR":"0.00001316600000","TLE_LINE1":"1 46134U 20057T   22340.07353853 -.00000085  00000-0  13166-4 0  9992","ELEMENT_SET_NO":"999","FILE":"3683104","PERIOD":"95.592","SITE":"AFETR","REV_AT_EPOCH":"12732","RA_OF_ASC_NODE":"217.0121","OBJECT_TYPE":"PAYLOAD","RCS_SIZE":"LARGE","DECAY_DATE":null,"TLE_LINE2":"2 46134  53.0546 217.0121 0001676  71.7083 288.4089 15.06404209127328","TIME_SYSTEM":"UTC","COUNTRY_CODE":"US","INCLINATION":"53.0546","CENTER_NAME":"EARTH"},{"OBJECT_ID":"2020-057U","GP_ID":"219663731","LAUNCH_DATE":"2020-08-18","PERIAPSIS":"545.952","EPHEMERIS_TYPE":"0","NORAD_CAT_ID":"46135","MEAN_ELEMENT_THEORY":"SGP4","REF_FRAME":"TEME","MEAN_MOTION_DDOT":"0.0000000000000","ECCENTRICITY":"0.00018310","ARG_OF_PERICENTER":"68.3004","CLASSIFICATION_TYPE":"U","MEAN_MOTION":"15.06397862","EPOCH":"2022-12-06T08:30:38.822400","OBJECT_NAME":"STARLINK-1639","APOAPSIS":"548.488","OBJECT_TYPE":"PAYLOAD","RCS_SIZE":"LARGE","DECAY_DATE":null,"TIME_SYSTEM":"UTC","TLE_LINE2":"2 46135  53.0560 215.7614 0001831  68.3004 291.8180 15.06397862127365","COUNTRY_CODE":"US","INCLINATION":"53.0560","CENTER_NAME":"EARTH","SEMIMAJOR_AXIS":"6925.355","MEAN_ANOMALY":"291.8180","MEAN_MOTION_DOT":"0.00000688","TLE_LINE1":"1 46135U 20057U   22340.35461600  .00000688  00000-0  65088-4 0  9992","ELEMENT_SET_NO":"999","BSTAR":"0.00006508800000","PERIOD":"95.592","FILE":"3683104","REV_AT_EPOCH":"12736","SITE":"AFETR","RA_OF_ASC_NODE":"215.7614"},{"OBJECT_NAME":"STARLINK-1643","ECCENTRICITY":"0.00018200","CLASSIFICATION_TYPE":"U","ARG_OF_PERICENTER":"50.5185","MEAN_MOTION":"15.06386103","EPOCH":"2022-12-06T17:37:19.290720","APOAPSIS":"548.517","LAUNCH_DATE":"2020-08-18","PERIAPSIS":"545.996","EPHEMERIS_TYPE":"0","OBJECT_ID":"2020-057V","GP_ID":"219692447","MEAN_ELEMENT_THEORY":"SGP4","MEAN_MOTION_DDOT":"0.0000000000000","REF_FRAME":"TEME","NORAD_CAT_ID":"46136","MEAN_MOTION_DOT":"-0.00000731","SEMIMAJOR_AXIS":"6925.391","MEAN_ANOMALY":"309.5965","REV_AT_EPOCH":"12700","SITE":"AFETR","RA_OF_ASC_NODE":"244.0281","TLE_LINE1":"1 46136U 20057V   22340.73425105 -.00000731  00000-0 -30193-4 0  9995","ELEMENT_SET_NO":"999","BSTAR":"-0.00003019300000","PERIOD":"95.593","FILE":"3683274","DECAY_DATE":null,"RCS_SIZE":"LARGE","TIME_SYSTEM":"UTC","TLE_LINE2":"2 46136  53.0557 244.0281 0001820  50.5185 309.5965 15.06386103127003","OBJECT_TYPE":"PAYLOAD","INCLINATION":"53.0557","CENTER_NAME":"EARTH","COUNTRY_CODE":"US"},{"REV_AT_EPOCH":"12709","SITE":"AFETR","RA_OF_ASC_NODE":"235.4536","ELEMENT_SET_NO":"999","TLE_LINE1":"1 46137U 20057W   22340.42280818 -.00000028  00000-0  17084-4 0  9994","BSTAR":"0.00001708400000","PERIOD":"95.592","FILE":"3683104","MEAN_MOTION_DOT":"-0.00000028","SEMIMAJOR_AXIS":"6925.358","MEAN_ANOMALY":"302.6877","INCLINATION":"53.0533","CENTER_NAME":"EARTH","COUNTRY_CODE":"US","DECAY_DATE":null,"RCS_SIZE":"LARGE","TIME_SYSTEM":"UTC","TLE_LINE2":"2 46137  53.0533 235.4536 0002867  57.4388 302.6877 15.06397049127094","OBJECT_TYPE":"PAYLOAD","APOAPSIS":"549.208","OBJECT_NAME":"STARLINK-1586","ECCENTRICITY":"0.00028670","CLASSIFICATION_TYPE":"U","ARG_OF_PERICENTER":"57.4388","MEAN_MOTION":"15.06397049","EPOCH":"2022-12-06T10:08:50.626752","MEAN_ELEMENT_THEORY":"SGP4","MEAN_MOTION_DDOT":"0.0000000000000","REF_FRAME":"TEME","NORAD_CAT_ID":"46137","LAUNCH_DATE":"2020-08-18","PERIAPSIS":"545.237","EPHEMERIS_TYPE":"0","GP_ID":"219663214","OBJECT_ID":"2020-057W"},{"LAUNCH_DATE":"2020-08-18","PERIAPSIS":"546.059","EPHEMERIS_TYPE":"0","GP_ID":"219693446","OBJECT_ID":"2020-057X","MEAN_ELEMENT_THEORY":"SGP4","REF_FRAME":"TEME","MEAN_MOTION_DDOT":"0.0000000000000","NORAD_CAT_ID":"46138","OBJECT_NAME":"STARLINK-1590","ECCENTRICITY":"0.00016990","ARG_OF_PERICENTER":"70.2406","CLASSIFICATION_TYPE":"U","MEAN_MOTION":"15.06392850","EPOCH":"2022-12-06T18:03:53.600544","APOAPSIS":"548.412","RCS_SIZE":"LARGE","DECAY_DATE":null,"TIME_SYSTEM":"UTC","TLE_LINE2":"2 46138  53.0536 253.9709 0001699  70.2406 289.8766 15.06392850126863","OBJECT_TYPE":"PAYLOAD","INCLINATION":"53.0536","CENTER_NAME":"EARTH","COUNTRY_CODE":"US","MEAN_MOTION_DOT":"-0.00000394","SEMIMAJOR_AXIS":"6925.370","MEAN_ANOMALY":"289.8766","REV_AT_EPOCH":"12686","SITE":"AFETR","RA_OF_ASC_NODE":"253.9709","BSTAR":"-0.00000753510000","TLE_LINE1":"1 46138U 20057X   22340.75270371 -.00000394  00000-0 -75351-5 0  9993","ELEMENT_SET_NO":"999","PERIOD":"95.593","FILE":"3683274"}];
